[{"OBJECT_NAME":"STARLINK-30256","OBJECT_ID":"2023-115B","EPOCH":"2026-03-09T04:55:32.299680","MEAN_MOTION":15.26726159,"ECCENTRICITY":0.00017429,"INCLINATION":43.0014,"RA_OF_ASC_NODE":4.6316,"ARG_OF_PERICENTER":264.2228,"MEAN_ANOMALY":95.8424,"EPHEMERIS_TYPE":0,"CLASSIFICATION_TYPE":"U","NORAD_CAT_ID":57522,"ELEMENT_SET_NO":999,"REV_AT_EPOCH":14227,"BSTAR":-0.00019068612,"MEAN_MOTION_DOT":-5.369e-5,"MEAN_MOTION_DDOT":0},{"OBJECT_NAME":"OBJECT G","OBJECT_ID":"2025-155G","EPOCH":"2026-03-09T22:09:56.639808","MEAN_MOTION":15.27590702,"ECCENTRICITY":0.00081871,"INCLINATION":97.4488,"RA_OF_ASC_NODE":37.3259,"ARG_OF_PERICENTER":154.1528,"MEAN_ANOMALY":206.0122,"EPHEMERIS_TYPE":0,"CLASSIFICATION_TYPE":"U","NORAD_CAT_ID":64882,"ELEMENT_SET_NO":999,"REV_AT_EPOCH":6559,"BSTAR":0.0004792617,"MEAN_MOTION_DOT":0.00012876,"MEAN_MOTION_DDOT":0}]
